LEMUR-2-JK0903EM1407    
1 58336U 23174CJ  26066.21398920  .00036986  00000+0  74364-3 0  9994
2 58336  97.3915 154.2424 0006298 124.1041 236.0807 15.46521077129940
LEMUR-2-MJR092620       
1 58340U 23174CN  26066.23663592  .00017788  00000+0  41772-3 0  9997
2 58340  97.3987 154.6332 0007981 121.6002 238.6025 15.42055033129923
LEMUR-2-NIMBUS2000      
1 58899U 24022A   26066.54265358  .00025149  00000+0  70187-3 0  9993
2 58899  97.4228 275.4368 0010586 120.1611 240.0683 15.36668480116648
LEMUR-2-VALHALLA        
1 58900U 24022B   26066.52147323  .00025742  00000+0  72366-3 0  9995
2 58900  97.4225 275.4498 0011134 115.8558 244.3836 15.36430354116647
LEMUR-2-OBA-NI-JESU     
1 58902U 24022D   26066.55753384  .00127273  00000+0  12863-2 0  9997
2 58902  97.4058 284.5060 0005098  76.9443 283.2385 15.64895401117260
LEMUR-2-CAEL            
1 58903U 24022E   26066.54578120  .00024934  00000+0  67627-3 0  9999
2 58903  97.4212 276.2446 0009493 100.9331 259.2982 15.37569419116707
LEMUR-2-JOHNNYTRUONG    
1 59146U 24043BA  26066.59052304  .00048935  00000+0  78438-3 0  9997
2 59146  97.5261 212.6546 0005391 190.9670 169.1466 15.52927811112236
LEMUR-2-TOMATOKECHUP    
1 60471U 24149D   26066.47402558  .00017379  00000+0  53541-3 0  9990
2 60471  97.3844 148.4167 0001275 190.3061 169.8156 15.33684710 86560
LEMUR-2-STELLA          
1 60533U 24149BT  26066.20747412  .00013848  00000+0  86999-3 0  9991
2 60533  97.6777 148.3902 0001587  95.2142 264.9268 15.09374476 85100
LEMUR-2-MARHISYAM       
1 60536U 24149BW  26066.22052203  .00017820  00000+0  11313-2 0  9994
2 60536  97.6921 148.7404 0003537 111.4967 248.6639 15.08931346 85091
LEMUR-2-AHMED-ASRAR     
1 60576U 24149DN  26066.48009423  .00017674  00000+0  10809-2 0  9998
2 60576  97.7031 150.7188 0001870  30.6099 329.5239 15.10302432 85205
LEMUR-2-LLOYD           
1 60577U 24149DP  26066.46824094  .00016280  00000+0  10862-2 0  9997
2 60577  97.6789 147.6904 0005365 129.1881 230.9824 15.07108886 85064
LEMUR-2-SQUIRRELCOMM    
1 60578U 24149DQ  26066.16901849  .00009086  00000+0  62992-3 0  9997
2 60578  97.6754 147.4852 0006106  49.1674 311.0081 15.05827332 85048
LEMUR-2-SIERRINI        
1 60579U 24149DR  26066.22218193  .00017867  00000+0  11443-2 0  9998
2 60579  97.6883 148.5323 0006393 155.3033 204.8502 15.08593435 85071
LEMUR-2-WILSON          
1 62694U 25009CP  26066.22107652  .00004029  00000+0  37680-3 0  9999
2 62694  97.7071 146.4935 0003662  41.5297 318.6201 14.94660004 62123
LEMUR-2-STAR-FOX        
1 62696U 25009CR  26066.47919601  .00015235  00000+0  12016-2 0  9999
2 62696  97.7045 148.9410 0002442 157.3250 202.8082 15.00830268 62299
