[{"OBJECT_NAME":"LEMUR-2-JK0903EM1407","OBJECT_ID":"2023-174CJ","EPOCH":"2026-03-07T05:08:08.666880","MEAN_MOTION":15.46521077,"ECCENTRICITY":0.0006298,"INCLINATION":97.3915,"RA_OF_ASC_NODE":154.2424,"ARG_OF_PERICENTER":124.1041,"MEAN_ANOMALY":236.0807,"EPHEMERIS_TYPE":0,"CLASSIFICATION_TYPE":"U","NORAD_CAT_ID":58336,"ELEMENT_SET_NO":999,"REV_AT_EPOCH":12994,"BSTAR":0.00074364,"MEAN_MOTION_DOT":0.00036986,"MEAN_MOTION_DDOT":0},{"OBJECT_NAME":"LEMUR-2-MJR092620","OBJECT_ID":"2023-174CN","EPOCH":"2026-03-07T05:40:45.343488","MEAN_MOTION":15.42055033,"ECCENTRICITY":0.0007981,"INCLINATION":97.3987,"RA_OF_ASC_NODE":154.6332,"ARG_OF_PERICENTER":121.6002,"MEAN_ANOMALY":238.6025,"EPHEMERIS_TYPE":0,"CLASSIFICATION_TYPE":"U","NORAD_CAT_ID":58340,"ELEMENT_SET_NO":999,"REV_AT_EPOCH":12992,"BSTAR":0.00041772,"MEAN_MOTION_DOT":0.00017788,"MEAN_MOTION_DDOT":0},{"OBJECT_NAME":"LEMUR-2-NIMBUS2000","OBJECT_ID":"2024-022A","EPOCH":"2026-03-07T13:01:25.269312","MEAN_MOTION":15.3666848,"ECCENTRICITY":0.00105863,"INCLINATION":97.4228,"RA_OF_ASC_NODE":275.4368,"ARG_OF_PERICENTER":120.1611,"MEAN_ANOMALY":240.0683,"EPHEMERIS_TYPE":0,"CLASSIFICATION_TYPE":"U","NORAD_CAT_ID":58899,"ELEMENT_SET_NO":999,"REV_AT_EPOCH":11664,"BSTAR":0.00070186845,"MEAN_MOTION_DOT":0.00025149,"MEAN_MOTION_DDOT":0},{"OBJECT_NAME":"LEMUR-2-VALHALLA","OBJECT_ID":"2024-022B","EPOCH":"2026-03-07T12:30:55.287072","MEAN_MOTION":15.36430354,"ECCENTRICITY":0.00111342,"INCLINATION":97.4225,"RA_OF_ASC_NODE":275.4498,"ARG_OF_PERICENTER":115.8558,"MEAN_ANOMALY":244.3836,"EPHEMERIS_TYPE":0,"CLASSIFICATION_TYPE":"U","NORAD_CAT_ID":58900,"ELEMENT_SET_NO":999,"REV_AT_EPOCH":11664,"BSTAR":0.00072366309,"MEAN_MOTION_DOT":0.00025742,"MEAN_MOTION_DDOT":0},{"OBJECT_NAME":"LEMUR-2-OBA-NI-JESU","OBJECT_ID":"2024-022D","EPOCH":"2026-03-07T13:22:50.923776","MEAN_MOTION":15.64895401,"ECCENTRICITY":0.0005098,"INCLINATION":97.4058,"RA_OF_ASC_NODE":284.506,"ARG_OF_PERICENTER":76.9443,"MEAN_ANOMALY":283.2385,"EPHEMERIS_TYPE":0,"CLASSIFICATION_TYPE":"U","NORAD_CAT_ID":58902,"ELEMENT_SET_NO":999,"REV_AT_EPOCH":11726,"BSTAR":0.0012863367,"MEAN_MOTION_DOT":0.00127273,"MEAN_MOTION_DDOT":0},{"OBJECT_NAME":"LEMUR-2-CAEL","OBJECT_ID":"2024-022E","EPOCH":"2026-03-07T13:05:55.495680","MEAN_MOTION":15.37569419,"ECCENTRICITY":0.00094937,"INCLINATION":97.4212,"RA_OF_ASC_NODE":276.2446,"ARG_OF_PERICENTER":100.9331,"MEAN_ANOMALY":259.2982,"EPHEMERIS_TYPE":0,"CLASSIFICATION_TYPE":"U","NORAD_CAT_ID":58903,"ELEMENT_SET_NO":999,"REV_AT_EPOCH":11670,"BSTAR":0.00067627196,"MEAN_MOTION_DOT":0.00024934,"MEAN_MOTION_DDOT":0},{"OBJECT_NAME":"LEMUR-2-JOHNNYTRUONG","OBJECT_ID":"2024-043BA","EPOCH":"2026-03-07T14:10:21.190656","MEAN_MOTION":15.52927811,"ECCENTRICITY":0.00053911,"INCLINATION":97.5261,"RA_OF_ASC_NODE":212.6546,"ARG_OF_PERICENTER":190.967,"MEAN_ANOMALY":169.1466,"EPHEMERIS_TYPE":0,"CLASSIFICATION_TYPE":"U","NORAD_CAT_ID":59146,"ELEMENT_SET_NO":999,"REV_AT_EPOCH":11223,"BSTAR":0.00078437761,"MEAN_MOTION_DOT":0.00048935,"MEAN_MOTION_DDOT":0},{"OBJECT_NAME":"LEMUR-2-TOMATOKECHUP","OBJECT_ID":"2024-149D","EPOCH":"2026-03-07T11:22:35.810112","MEAN_MOTION":15.3368471,"ECCENTRICITY":0.00012751,"INCLINATION":97.3844,"RA_OF_ASC_NODE":148.4167,"ARG_OF_PERICENTER":190.3061,"MEAN_ANOMALY":169.8156,"EPHEMERIS_TYPE":0,"CLASSIFICATION_TYPE":"U","NORAD_CAT_ID":60471,"ELEMENT_SET_NO":999,"REV_AT_EPOCH":8656,"BSTAR":0.00053541245,"MEAN_MOTION_DOT":0.00017379,"MEAN_MOTION_DDOT":0},{"OBJECT_NAME":"LEMUR-2-STELLA","OBJECT_ID":"2024-149BT","EPOCH":"2026-03-07T04:58:45.763968","MEAN_MOTION":15.09374476,"ECCENTRICITY":0.00015879,"INCLINATION":97.6777,"RA_OF_ASC_NODE":148.3902,"ARG_OF_PERICENTER":95.2142,"MEAN_ANOMALY":264.9268,"EPHEMERIS_TYPE":0,"CLASSIFICATION_TYPE":"U","NORAD_CAT_ID":60533,"ELEMENT_SET_NO":999,"REV_AT_EPOCH":8510,"BSTAR":0.00086999304,"MEAN_MOTION_DOT":0.00013848,"MEAN_MOTION_DDOT":0},{"OBJECT_NAME":"LEMUR-2-MARHISYAM","OBJECT_ID":"2024-149BW","EPOCH":"2026-03-07T05:17:33.103392","MEAN_MOTION":15.08931346,"ECCENTRICITY":0.0003537,"INCLINATION":97.6921,"RA_OF_ASC_NODE":148.7404,"ARG_OF_PERICENTER":111.4967,"MEAN_ANOMALY":248.6639,"EPHEMERIS_TYPE":0,"CLASSIFICATION_TYPE":"U","NORAD_CAT_ID":60536,"ELEMENT_SET_NO":999,"REV_AT_EPOCH":8509,"BSTAR":0.0011313,"MEAN_MOTION_DOT":0.0001782,"MEAN_MOTION_DDOT":0},{"OBJECT_NAME":"LEMUR-2-AHMED-ASRAR","OBJECT_ID":"2024-149DN","EPOCH":"2026-03-07T11:31:20.141472","MEAN_MOTION":15.10302432,"ECCENTRICITY":0.00018705,"INCLINATION":97.7031,"RA_OF_ASC_NODE":150.7188,"ARG_OF_PERICENTER":30.6099,"MEAN_ANOMALY":329.5239,"EPHEMERIS_TYPE":0,"CLASSIFICATION_TYPE":"U","NORAD_CAT_ID":60576,"ELEMENT_SET_NO":999,"REV_AT_EPOCH":8520,"BSTAR":0.0010808876,"MEAN_MOTION_DOT":0.00017674,"MEAN_MOTION_DDOT":0},{"OBJECT_NAME":"LEMUR-2-LLOYD","OBJECT_ID":"2024-149DP","EPOCH":"2026-03-07T11:14:16.017216","MEAN_MOTION":15.07108886,"ECCENTRICITY":0.0005365,"INCLINATION":97.6789,"RA_OF_ASC_NODE":147.6904,"ARG_OF_PERICENTER":129.1881,"MEAN_ANOMALY":230.9824,"EPHEMERIS_TYPE":0,"CLASSIFICATION_TYPE":"U","NORAD_CAT_ID":60577,"ELEMENT_SET_NO":999,"REV_AT_EPOCH":8506,"BSTAR":0.0010862025,"MEAN_MOTION_DOT":0.0001628,"MEAN_MOTION_DDOT":0},{"OBJECT_NAME":"LEMUR-2-SQUIRRELCOMM","OBJECT_ID":"2024-149DQ","EPOCH":"2026-03-07T04:03:23.197536","MEAN_MOTION":15.05827332,"ECCENTRICITY":0.00061066,"INCLINATION":97.6754,"RA_OF_ASC_NODE":147.4852,"ARG_OF_PERICENTER":49.1674,"MEAN_ANOMALY":311.0081,"EPHEMERIS_TYPE":0,"CLASSIFICATION_TYPE":"U","NORAD_CAT_ID":60578,"ELEMENT_SET_NO":999,"REV_AT_EPOCH":8504,"BSTAR":0.00062992158,"MEAN_MOTION_DOT":9.086e-5,"MEAN_MOTION_DDOT":0},{"OBJECT_NAME":"LEMUR-2-SIERRINI","OBJECT_ID":"2024-149DR","EPOCH":"2026-03-07T05:19:56.518752","MEAN_MOTION":15.08593435,"ECCENTRICITY":0.0006393,"INCLINATION":97.6883,"RA_OF_ASC_NODE":148.5323,"ARG_OF_PERICENTER":155.3033,"MEAN_ANOMALY":204.8502,"EPHEMERIS_TYPE":0,"CLASSIFICATION_TYPE":"U","NORAD_CAT_ID":60579,"ELEMENT_SET_NO":999,"REV_AT_EPOCH":8507,"BSTAR":0.0011443,"MEAN_MOTION_DOT":0.00017867,"MEAN_MOTION_DDOT":0},{"OBJECT_NAME":"LEMUR-2-WILSON","OBJECT_ID":"2025-009CP","EPOCH":"2026-03-07T05:18:21.011328","MEAN_MOTION":14.94660004,"ECCENTRICITY":0.0003662,"INCLINATION":97.7071,"RA_OF_ASC_NODE":146.4935,"ARG_OF_PERICENTER":41.5297,"MEAN_ANOMALY":318.6201,"EPHEMERIS_TYPE":0,"CLASSIFICATION_TYPE":"U","NORAD_CAT_ID":62694,"ELEMENT_SET_NO":999,"REV_AT_EPOCH":6212,"BSTAR":0.0003768,"MEAN_MOTION_DOT":4.029e-5,"MEAN_MOTION_DDOT":0},{"OBJECT_NAME":"LEMUR-2-STAR-FOX","OBJECT_ID":"2025-009CR","EPOCH":"2026-03-07T11:30:02.535264","MEAN_MOTION":15.00830268,"ECCENTRICITY":0.00024425,"INCLINATION":97.7045,"RA_OF_ASC_NODE":148.941,"ARG_OF_PERICENTER":157.325,"MEAN_ANOMALY":202.8082,"EPHEMERIS_TYPE":0,"CLASSIFICATION_TYPE":"U","NORAD_CAT_ID":62696,"ELEMENT_SET_NO":999,"REV_AT_EPOCH":6229,"BSTAR":0.0012015634,"MEAN_MOTION_DOT":0.00015235,"MEAN_MOTION_DDOT":0}]
